EVENT_NAME: 202302060117
EVENT_ID: 12439
EVENT_DATE_YYYYMMDD: 2023/02/06
EVENT_TIME_HHMMSS: 01:17:34.00000
EVENT_LATITUDE_DEGREE: 37.288
EVENT_LONGITUDE_DEGREE: 37.043
EVENT_DEPTH_KM: 7.0
HYPOCENTER_REFERENCE: AFAD
MAGNITUDE_W: 7.4
MAGNITUDE_W_REFERENCE: AFAD
MAGNITUDE_L: 
MAGNITUDE_L_REFERENCE: 
FOCAL_MECHANISM: 
NETWORK: TK
STATION_CODE: 0139
STATION_NAME: 
STATION_LATITUDE_DEGREE: 37.400943
STATION_LONGITUDE_DEGREE: 35.445322
STATION_ELEVATION_M: 238.0
LOCATION: Kahramanmaras_Pazarck_Turkiye
SENSOR_DEPTH_M: 
VS30_M/S: None
SITE_CLASSIFICATION_EC8: unknown
MORPHOLOGIC_CLASSIFICATION: 
EPICENTRAL_DISTANCE_KM: 141.79
EARTHQUAKE_BACKAZIMUTH_DEGREE: 
DATE_TIME_FIRST_SAMPLE_YYYYMMDD_HHMMSS: 2023/02/06 01:17:38.7904290
DATE_TIME_FIRST_SAMPLE_PRECISION: millisecond
SAMPLING_INTERVAL_S: 0.01
NDATA: 12501
DURATION_S: 
STREAM: HNE
UNITS: cm/s^2
INSTRUMENT: sensor = GMS+/GEOSIG | digitizer = 
INSTRUMENT_ANALOG/DIGITAL: 
INSTRUMENTAL_FREQUENCY_HZ: 
INSTRUMENTAL_DAMPING: 
FULL_SCALE_G: 
N_BIT_DIGITAL_CONVERTER: 
PGA_CM/S^2: 17.661
TIME_PGA_S: 
BASELINE_CORRECTION: BASELINE REMOVED
FILTER_TYPE: BUTTERWORTH
FILTER_ORDER: 
LOW_CUT_FREQUENCY_HZ: 
HIGH_CUT_FREQUENCY_HZ: 
LATE/NORMAL_TRIGGERED: 
DATABASE_VERSION: 
HEADER_FORMAT: DYNA 1.2
DATA_TYPE: Acceleration
PROCESSING: Automatic Paolucci et al., 2011
DATA_TIMESTAMP_YYYYMMDD_HHMMSS: 
DATA_LICENSE: U (unknown license)
DATA_CITATION: Turkish Accelerometric Archive v 1.0 - Disaster And Emergency Management Presidency, Earthquake Department
DATA_CREATOR: AFAD
ORIGINAL_DATA_MEDIATOR_CITATION: : AFAD - Disaster And Emergency Management Presidency
ORIGINAL_DATA_MEDIATOR: AFAD PROCESS SERVICE
ORIGINAL_DATA_CREATOR_CITATION: AFAD PROCESS SERVICE
ORIGINAL_DATA_CREATOR: network: TK
USER1: GuestUser
USER2: 
USER3: 
USER4: 
USER5: 
[...]
6.768934
6.147307
5.193697
4.026818
2.829545
1.768911
0.880762
-0.011023
-1.048018
-2.003966
-2.343745
-1.854084
-1.022309
-0.557846
-0.756311
-1.347805
-1.902931
-2.079835
-1.603682
-0.624619
0.194687
0.286903
-0.236272
-0.759966
-0.844912
-0.459418
-0.049506
-0.272129
-1.209894
-2.305077
-2.893194
-2.927225
-3.162837
-4.166322
-5.719736
-7.278865
-8.460812
-9.001391
-8.715648
-7.633716
-6.034587
-4.405325
-3.149608
-2.336017
-1.768167
-1.294612
-0.897948
-0.389584
0.336725
0.868728
0.774949
0.152284
-0.483111
-0.637415
-0.097619
1.172904
2.911788
4.540531
5.547130
5.888463
5.964833
6.142512
6.546190
7.162097
7.948932
8.814737
9.579751
10.087596
10.197735
9.752231
8.812129
7.884756
7.495362
7.541339
7.382618
6.513953
5.100034
3.774436
3.057215
3.013052
3.188134
3.007333
2.152435
0.672535
-0.829705
-1.479126
-0.888936
0.393017
1.364807
1.536252
1.246349
1.272583
1.998373
2.994321
3.565029
3.150698
1.577021
-0.601914
-2.498741
-3.587171
-3.834212
-3.561977
-3.155442
-2.835670
-2.733324
-2.676177
-2.331467
-1.641785
-0.820920
-0.111496
0.539221
1.183963
1.698821
2.068469
2.330832
2.436816
2.294721
2.060668
1.909741
1.716471
1.431764
1.182384
1.032237
0.815848
0.239940
-0.813680
-2.168892
-3.455784
-4.468881
-5.307414
-6.036324
-6.559499
-6.803163
-6.705492
-6.065426
-4.791786
-3.119922
-1.354281
0.260174
1.561350
2.525087
3.223081
3.698974
3.874575
3.663122
3.059680
2.180103
1.241300
0.454981
-0.047672
-0.301987
-0.337318
-0.066122
0.507184
1.235831
1.879534
2.226582
2.196707
1.917194
1.654307
1.450128
1.243091
1.172951
1.479475
2.286832
3.467475
4.552784
4.925029
4.525764
3.836857
3.107947
2.195640
0.944595
-0.405940
-1.326040
-1.602175
-1.593605
-1.834412
-2.512668
-3.434067
-4.272340
-4.788241
-5.017618
-5.043077
-4.825393
-4.477306
-4.277547
-4.426915
-4.925412
-5.705757
-6.630273
-7.378666
-7.731693
-7.671169
-7.137348
-6.083991
-4.708262
-3.401631
-2.328532
-1.165033
0.503714
2.609650
4.627266
6.015723
6.434207
5.676203
3.793922
1.446138
-0.447313
-1.436511
-1.509767
-1.002443
-0.564995
-0.693063
-1.347420
-1.957098
-1.901249
-0.895430
0.758770
2.276592
3.307609
4.096782
4.845951
5.441597
5.634083
5.425487
4.903351
3.996500
2.590374
0.711211
-1.252117
-2.663438
-3.063743
-2.601358
-1.847773
-1.237320
-0.891311
-0.652067
-0.295148
0.227503
0.643649
0.555586
-0.033570
-0.713384
-1.008223
-0.747418
-0.248406
0.030843
-0.166843
-0.801977
-1.543617
-1.867809
-1.372174
-0.098274
1.488387
2.656821
3.033223
2.989580
3.058676
3.410140
3.867070
4.313869
4.859379
5.626212
6.570726
7.426140
7.882291
7.776563
7.303004
6.904518
6.780347
6.650201
6.084685
4.961706
3.391407
1.584719
-0.205084
-1.864224
-3.450369
-5.092104
-6.740333
-8.217895
-9.306844
-9.710006
-9.417510
-8.857452
-8.542615
-8.644186
-8.968639
-9.203990
-9.052028
-8.561848
-8.158690
-8.291433
-9.152826
-10.433744
-11.609975
-12.364083
-12.622554
-12.432666
-11.877544
-11.149156
-10.438173
-9.820188
-9.385858
-9.242727
-9.415215
-9.755254
-9.987228
-10.126466
-10.451178
-10.896422
-10.955131
-10.094782
-8.360054
-6.291524
-4.367165
-2.937664
-2.031855
-1.247358
-0.140749
1.231863
2.380814
3.068938
3.434689
3.648476
3.816284
4.128263
4.744431
5.505549
5.974947
5.797784
4.937171
3.528967
1.835538
0.243418
-1.057761
-2.376865
-4.034966
-5.766581
-6.984375
-7.098934
-5.943488
-4.065368
-2.155037
-0.512007
1.001659
2.571175
4.173161
5.785799
7.276605
8.310479
8.624017
8.286836
7.634038
6.874474
6.058801
5.156365
4.018060
2.558682
0.949677
-0.288638
-0.685825
-0.313060
0.247257
0.334797
-0.206042
-1.065876
-1.828556
-2.277697
-2.549936
-2.944525
-3.883069
-5.549482
-7.508654
-9.084668
-9.887612
-9.940867
-9.468611
-8.820232
-8.272903
-7.622446
-6.341273
-4.293264
-1.949640
0.151101
1.671781
2.529013
3.033480
3.623411
4.445575
5.197601
5.474771
5.262279
4.799371
4.082929
2.748239
0.643078
-1.653013
-3.279162
-3.819481
-3.518153
-2.938093
-2.522726
-2.439083
-2.535199
-2.477792
-2.013589
-1.171423
-0.166123
0.824890
1.660041
2.214384
2.501426
2.748463
3.320990
4.477734
5.910352
6.909677
7.136972
6.859798
6.417671
5.806435
5.042196
4.314584
3.693737
3.132896
2.647128
2.317480
2.191231
2.236169
2.330982
2.437225
2.587369
2.725824
2.808428
2.881680
3.048190
3.401212
4.074009
5.130483
6.359443
7.361886
7.787643
7.618273
7.144974
6.694794
6.351119
5.971596
5.471281
4.737954
3.767719
2.803458
1.860499
0.705828
-0.549632
-1.501683
-2.178900
-2.955608
-3.875189
-4.516298
-4.346931
-3.284742
-1.864853
-0.849941
-0.666807
-1.103998
-1.658865
-1.977862
-1.916558
-1.472617
-0.835668
-0.319511
-0.027015
0.250416
0.689421
1.128947
1.113618
0.348860
-0.953099
-2.348834
-3.400117
-3.804837
-3.505587
-2.673032
-1.581749
-0.338762
0.909161
1.938100
2.860794
4.084818
5.851238
7.957694
9.961802
11.491573
12.300229
12.237623
11.518063
10.819545
10.737976
11.319595
12.231378
13.099521
13.641135
13.733350
13.370712
12.696353
12.026409
11.652342
11.524274
11.179820
10.225171
8.787613
7.491629
6.864547
6.805058
6.812070
6.422936
5.558686
4.455449
3.285193
2.025836
0.502295
-1.416612
-3.684388
-6.151666
-8.577900
-10.651370
-12.153610
-13.061501
-13.537657
-13.782880
-13.818990
-13.518181
-12.755504
-11.581615
-10.184325
-8.651696
-7.102443
-5.799189
-4.993391
-4.609456
-4.126549
-3.147746
-1.770978
-0.253156
1.286227
2.758070
3.988849
4.768670
4.949986
4.593842
3.888570
2.797024
1.271405
-0.318377
-1.665016
-2.865146
-4.022414
-5.034472
-5.720001
-5.869630
-5.333990
-4.366616
-3.550687
-3.252476
-3.329889
-3.416393
-3.349635
-3.318984
-3.544725
-3.880347
-4.045561
-3.907107
-3.520314
-2.968829
-2.203295
-1.197475
-0.053979
0.902484
1.345387
1.328760
1.302521
1.790623
3.049456
5.014079
7.288865
9.356356
10.915221
11.861294
12.137685
11.779723
11.032888
10.292028
9.872761
9.824182
10.038229
10.527630
11.276019
11.978429
12.373015
12.533550
12.548095
12.192211
11.160410
9.395026
7.028538
4.380981
1.987737
0.276644
-0.714632
-1.320153
-1.900217
-2.367801
-2.373518
-1.787744
-0.933109
-0.425525
-0.561125
-1.341211
-2.637714
-4.022799
-5.091486
-5.875468
-6.909865
-8.604853
-10.750278
-12.808422
-14.211430
-14.665506
-14.163377
-12.843758
-11.037334
-9.104662
-7.269664
-5.555198
-3.774231
-1.762070
0.281782
1.857272
2.638912
2.829320
2.999206
3.602385
4.699903
6.047836
7.304332
8.212738
8.853844
9.537551
10.332439
10.910940
10.991726
10.657922
10.148255
9.766914
9.675474
9.720931
9.670534
9.380891
8.876939
8.247260
7.419637
6.138979
4.301899
2.205310
0.223798
-1.326239
-2.235169
-2.657034
-2.980707
-3.551159
-4.332803
-4.928453
-5.099122
-4.923781
-4.488932
-3.744179
-2.775766
-1.899831
-1.488360
-1.683708
-2.236756
-2.828249
-3.345449
-3.729388
-3.803684
-3.446245
-2.851898
-2.433414
-2.370552
-2.513946
-2.527456
-1.986621
-0.733502
1.002784
2.714393
3.924390
4.494319
4.484186
4.151681
3.884378
4.036080
4.729659
5.692617
6.598166
7.234335
7.510207
7.356682
6.725444
5.803526
4.868099
4.186466
3.804865
3.492882
3.248438
3.335978
3.826938
4.510904
5.136164
5.595172
5.945857
6.074440
5.679071
4.627528
3.075673
1.591617
0.513318
-0.311967
-1.245575
-2.534285
-3.892094
-5.138982
-5.993880
-6.304045
-6.507186
-6.686168
-6.913726
-7.429887
-8.035149
-8.429219
-8.578068
-8.462213
-8.222969
-8.347919
-9.006433
-9.852239
-10.392039
-10.270989
-9.412718
-8.134142
-7.105723
-6.611646
-6.335775
-6.078087
-6.060684
-6.513202
-7.270947
-7.875429
-7.963233
-7.436945
-6.490352
-5.386341
-4.339998
-3.618624
-3.183515
-2.949466
-3.008955
-3.076496
-2.712304
-1.997424
-1.384634
-1.365673
-2.283694
-3.757879
-5.114390
-5.987212
-6.248540
-6.064367
-5.849541
-5.964880
-6.391421
-7.019282
-7.383218
-7.140078
-6.135038
-4.266009
-2.249693
-0.080113
2.231560
4.331522
6.621634
8.637950
9.852363
10.251625
9.935225
9.498813
9.216184
8.864456
8.081514
6.586547
4.572564
2.699376
1.391183
0.598629
0.228717
0.054931
-0.141975
-0.334985
-0.546438
-0.860759
-1.223917
-1.377182
-1.211452
-0.827517
-0.329804
-0.015486
-0.036789
-0.135763
0.140368
1.065140
2.324493
3.297322
3.721002
3.680476
3.364856
3.151844
3.285363
3.793467
4.597966
5.398569
5.854979
5.780943
5.351545
4.888896
4.513010
4.188038
3.767732
3.036483
1.856356
0.301902
-1.311518
-2.654780
-3.631509
-4.135461
-4.058572
-3.517218
-2.745969
-1.873150
-1.019555
-0.693548
-1.363232
-2.870407
-4.549030
-5.666813
-5.893852
-5.282360
-4.199130
-3.099535
-2.044619
-0.991262
-0.011160
1.034924
2.294277
3.539342
4.255521
4.111867
3.306065
2.339986
1.681213
1.494437
1.668220
1.912920
1.704324
0.796433
-0.781140
-3.056709
-5.733099
-8.112316
-9.575591
-10.213583
-10.662204
-11.377866
-12.266015
-12.829194
-12.898813
-12.788934
-12.778805
-12.849204
-12.689968
-11.879494
-10.295951
-8.417311
-6.887020
-6.026671
-5.714692
-5.443756
-4.763425
-3.535764
-1.966248
-0.476741
0.521805
0.833265
0.684675
0.604925
0.993276
1.735171
2.477326
2.991664
3.314814
3.525743
3.452746
2.937365
2.062205
1.281860
1.064172
1.504217
2.197536
2.525881
2.239095
1.449139
0.675807
0.310312
0.297062
0.651383
1.482639
2.829274
4.242409
5.120163
5.377071
5.309010
5.356546
5.646445
5.963100
6.149352
6.228319
6.284167
6.257409
6.047515
5.621753
5.050262
4.448118
3.862858
3.259156
2.625060
2.151242
2.075907
2.415681
2.851570
3.058603
3.057562
3.021712
3.104056
3.365121
3.727495
3.937906
3.663069
2.889998
2.038217
1.582582
1.637910
1.883909
1.911182
1.541011
0.842753
-0.077347
-1.139280
-2.125102
-2.762574
-2.916359
-2.814532
-2.879216
-3.217955
-3.737753
-4.376524
-5.029063
-5.555615
-5.757456
-5.103882
-3.194070
-0.561325
1.726709
3.072305
3.717567
4.137609
4.758972
5.708422
6.488763
6.560457
5.767643
4.377363
2.768878
1.253131
0.128853
-0.596421
-1.156483
-1.691347
-2.053985
-1.930597
-1.203768
-0.101055
1.001398
1.774984
2.075274
2.121771
2.263602
2.660266
3.366573
4.331608
5.295345
5.935671
6.023991
5.500556
4.468496
3.092244
1.607408
0.250379
-0.971052
-2.422377
-4.449348
-6.848827
-9.082054
-10.679628
-11.436594
-11.480237
-11.214237
-10.988241
-10.674962
-9.955927
-8.646179
-6.584143
-3.934772
-1.352421
0.586225
1.782974
2.351604
2.342250
1.879861
1.322397
1.167833
1.777247
3.124401
4.908486
6.833883
8.728369
10.531936
12.106647
13.190916
13.611219
13.405221
12.658386
11.352531
9.412062
6.806588
3.864714
1.116108
-1.252718
-3.312160
-5.064037
-6.540560
-7.852390
-8.884709
-9.251244
-8.658715
-7.222201
-5.435519
-3.960039
-3.261265
-3.288803
-3.637933
-3.855880
-3.653263
-3.121520
-2.629262
-2.490028
-2.896307
-3.949408
-5.573739
-7.401988
-8.995406
-10.211901
-11.055110
-11.623225
-12.040674
-12.257842
-12.349022
-12.408511
-12.355001
-12.196544
-12.145372
-12.457355
-13.115609
-13.853352
-14.413933
-14.636296
-14.281975
-13.190952
-11.601174
-9.899177
-8.410708
-7.278382
-6.280615
-4.972686
-3.056380
-0.611706
1.865439
3.747715
4.922904
5.883264
7.041307
8.376772
9.688858
10.790272
11.557624
11.823624
11.443842
10.614401
9.698977
8.937335
8.375975
7.910988
7.437689
6.836844
6.091308
5.335901
4.635824
4.084595
3.753129
3.587395
3.433351
2.964987
1.858114
0.023631
-2.217649
-4.424379
-6.305880
-7.714084
-8.821477
-9.852498
-10.800912
-11.505925
-11.772708
-11.635553
-11.222264
-10.534400
-9.637424
-8.653165
-7.711508
-6.888306
-6.052115
-5.081364
-4.032683
-3.058036
-2.273279
-1.538917
-0.475429
0.953812
2.193163
2.671394
2.209265
1.063686
-0.138002
-0.818856
-0.941728
-0.884322
-1.032391
-1.569334
-2.408126
-3.215487
-3.576047
-3.461491
-3.286409
-3.414477
-3.917390
-4.504467
-4.756184
-4.550450
-4.000264
-3.326947
-2.853392
-2.714678
-2.784817
-2.839630
-2.621427
-1.932525
-0.806433
0.404603
1.294047
1.560307
1.148313
0.468498
0.144825
0.561751
1.577441
2.770813
3.919245
5.070275
6.279233
7.506115
8.801835
10.148730
11.426786
12.566646
13.566750
14.512044
15.360444
16.042073
16.615898
17.119067
17.479103
17.551317
17.315186
16.859551
16.222598
15.327955
14.112759
12.666369
11.066976
9.382119
7.648686
5.676006
3.265098
0.513115
-2.242246
-4.596524
-6.277485
-7.244602
-7.680495
-7.956890
-8.459543
-9.413413
-10.763948
-12.140460
-13.055365
-13.184731
-12.449071
-11.012556
-9.271593
-7.612458
-6.232832
-5.216362
-4.653967
-4.590845
-4.833730
-4.893219
-4.217565
-2.698184
-0.694076
1.393417
3.354143
5.265513
7.291961
9.368024
11.084828
12.034018
12.264171
12.075317
11.705926
11.306400
10.919344
10.453059
9.783115
8.991601
8.377507
8.252817
8.753907
9.858698
11.454710
13.189698
14.674270
15.793868
16.513163
16.784359
16.731624
16.552642
16.343007
16.126878
15.792815
15.153783
14.163806
12.983678
11.920446
11.197250
10.795128
10.489119
9.883598
8.745033
7.403330
6.486867
6.322691
6.683247
6.989771
6.681425
5.473762
3.515369
1.327082
-0.537274
-1.820010
-2.644255
-3.324590
-4.052721
-4.798517
-5.533662
-6.276341
-6.972521
-7.486343
-7.640648
-7.349710
-6.693018
-5.893455
-5.210527
-4.917251
-5.265342
-6.274022
-7.779639
-9.470990
-11.012715
-12.421438
-13.958747
-15.644643
-17.060120
-17.660705
-17.160654
-15.606205
-13.361812
-10.913242
-8.638716
-6.808393
-5.543065
-5.005607
-5.206150
-5.677371
-6.000005
-6.051701
-5.868826
-5.486190
-4.839889
-3.970448
-2.929041
-1.655400
-0.109264
1.680016
3.700748
6.008265
8.466966
10.693435
12.443490
13.813244
15.009473
16.002824
16.454558
16.052436
14.909714
13.530605
12.369960
11.559222
10.972924
10.405329
9.749673
9.012189
8.203010
7.228619
5.938350
4.263884
2.127550
-0.452727
-3.167563
-5.615098
-7.429579
-8.305519
-8.205770
-7.255801
-5.530684
-3.288369
-0.928639
1.152619
2.599265
3.307650
3.443247
3.241665
2.634585
1.433157
-0.228840
-2.103847
-4.060941
-5.982706
-7.581320
-8.583506
-8.938611
-8.711316
-8.104760
-7.464434
-7.014778
-6.725398
-6.419653
-5.779847
-4.482048
-2.469888
0.016609
2.650653
5.213781
7.513765
9.349023
10.644224
11.420668
11.736544
11.673678
11.281167
10.585506
9.675797
8.731279
7.826246
6.756260
5.340782
3.615402
1.685844
-0.134093
-1.414491
-1.892725
-1.598930
-0.851320
0.034747
0.902889
1.799086
2.811920
3.883460
4.891098
5.694558
6.143176
6.261628
6.359818
6.644262
7.161718
8.031938
9.298565
10.673254
11.629718
11.830257
11.353061
10.556091
9.660929
8.790704
7.970096
6.999601
5.715566
4.072272
2.267143
0.564881
-0.906186
-2.021112
-2.623776
-2.631831
-2.221139
-1.838503
-1.928645
-2.438831
-2.942263
-3.072409
-2.777574
-2.278043
-1.706815
-1.136626
-0.562541
-0.069244
0.199094
0.377033
0.576014
0.941765
1.718729
2.767410
3.626720
4.088845
4.365496
4.695659
5.135444
5.465348
5.448980
5.179859
4.795920
4.269628
3.396806
2.169400
0.770548
-0.504135
-1.347084
-1.854153
-2.013912
-2.000926
-2.075481
-2.101460
-2.340448
-2.697372
-2.987275
-3.406282
-3.488631
-3.539807
-3.750481
-3.659304
-3.209908
-2.132912
-0.687565
0.932346
1.971935
2.307813
2.780848
2.706813
2.265984
1.842820
0.918564
-0.138174
-1.018529
-1.508194
-1.974479
-2.734822
-3.200588
-3.850529
-4.460466
-4.900775
-4.997670
-3.801181
-2.723146
-2.053466
-1.257020
-0.102873
1.610814
3.312292
5.793593
8.236449
9.826226
11.296771
12.525211
13.591037
13.814695
12.799001
11.413137
9.935055
8.347611
6.878882
5.733303
4.913993
3.470201
1.620651
0.802121
0.850695
1.508685
2.665950
3.904261
4.760454
5.145428
5.377399
5.264918
4.983587
4.434436
3.496672
2.213676
0.524403
-0.844836
-1.914562
-2.999095
-4.044923
-5.262197
-6.410114
-7.285014
-7.620117
-7.232805
-6.219192
-4.325226
-1.796128
0.895845
3.515863
5.827276
7.724619
9.166848
10.394250
11.393575
11.997014
12.186123
11.907130
11.290958
10.295006
9.024479
7.704597
6.314836
5.096523
4.197724
3.438160
2.566377
1.323645
-0.440181
-2.667433
-4.940924
-7.300658
-9.710007
-11.740615
-13.361569
-14.366613
-15.019931
-15.314510
-15.349581
-15.858468
-16.520878
-17.148479
-17.472672
-16.946124
-15.683135
-14.015426
-12.502021
-11.573352
-11.386581
-11.558030
-11.355153
-10.640274
-9.633675
-8.785535
-8.405236
-8.245481
-8.207557
-8.175608
-8.057675
-8.028843
-8.165742
-8.278224
-8.065736
-7.309813
-5.848880
-4.215461
-2.684391
-1.215665
-0.140228
0.730252
1.513970
2.226252
2.847874
3.181674
3.034903
2.289627
1.125345
-0.294808
-1.620666
-2.595836
-3.325007
-3.836752
-4.300959
-4.803092
-5.080786
-5.273536
-5.585259
-6.053623
-6.875011
-7.641329
-8.100860
-8.360890
-8.183730
-7.852008
-7.624454
-7.422096
-7.323646
-7.278708
-7.322351
-7.573549
-8.165822
-8.922268
-9.425440
-9.538182
-9.206980
-8.484047
-7.772026
-7.407054
-7.293277
-7.385237
-7.408099
-7.267566
-7.424468
-7.966086
-8.783318
-9.579249
-9.973059
-9.840060
-8.992439
-7.628140
-6.216823
-4.804207
-3.438089
-2.132757
-0.820672
0.576358
2.018068
2.998171
3.223647
2.625659
1.330714
-0.202698
-1.601030
-2.908444
-4.378733
-6.046185
-8.087963
-10.334698
-12.212562
-13.484647
-14.369679
-15.066378
-15.127426
-14.402415
-13.273726
-11.996968
-10.696053
-9.386305
-8.210078
-7.182438
-6.051410
-4.781147
-3.677395
-2.950047
-2.448177
-2.011509
-1.620041
-1.384953
-1.393268
-1.518738
-1.766039
-2.199593
-2.795503
-3.418428
-3.760804
-3.674304
-3.119441
-2.122454
-0.767507
0.903059
2.632072
4.164182
5.414702
6.253491
6.568847
6.302843
5.617833
4.968151
4.586031
4.156892
3.480714
2.549444
1.148514
-0.541019
-2.292376
-4.180631
-6.111748
-7.921553
-9.208445
-9.517051
-8.973099
-8.156911
-7.528274
-7.124597
-6.400106
-4.833188
-2.743097
-0.766006
0.570239
1.030026
0.974174
1.101458
1.963366
3.343251
4.620788
5.579589
6.209265
6.411362
6.146137
5.575425
5.049913
4.887556
5.146023
5.601134
5.803751
5.578531
5.198488
4.859489
4.443598
3.686113
2.577682
1.404827
0.401342
-0.397446
-1.027386
-1.498866
-1.953202
-2.723936
-3.944847
-5.445009
-7.045701
-8.414940
-9.297113
-9.807040
-10.195135
-10.627131
-10.979638
-11.096276
-11.041207
-10.846903
-10.366594
-9.441562
-8.079341
-6.521515
-5.140850
-4.148799
-3.492887
-2.998031
-2.377447
-1.446701
-0.382693
0.635075
1.586603
2.485398
3.446278
4.500154
5.499220
6.379571
7.101724
7.543847
7.758673
7.980773
8.395361
8.915414
9.180115
9.041657
8.797214
8.810979
9.173094
9.776013
10.490113
11.139531
11.572302
11.793103
11.926882
12.050789
12.074426
11.864791
11.320835
10.370083
9.074358
7.621214
6.164953
4.744021
3.309061
1.864230
0.682544
0.163785
0.583048
1.907343
3.565700
4.911555
5.688779
5.910879
5.831128
5.814501
5.995297
6.096605
5.750072
4.894135
3.790119
2.844822
2.253328
1.934331
1.756908
1.611955
1.412192
1.095793
0.622234
-0.111872
-1.175624
-2.438877
-3.649398
-4.581967
-5.123585
-5.291137
-5.237107
-5.080210
-4.873436
-4.703031
-4.645364
-4.736545
-4.935789
-5.194779
-5.419740
-5.486243
