EVENT_NAME: 202302060117
EVENT_ID: 12439
EVENT_DATE_YYYYMMDD: 2023/02/06
EVENT_TIME_HHMMSS: 01:17:34.00000
EVENT_LATITUDE_DEGREE: 37.288
EVENT_LONGITUDE_DEGREE: 37.043
EVENT_DEPTH_KM: 7.0
HYPOCENTER_REFERENCE: AFAD
MAGNITUDE_W: 7.4
MAGNITUDE_W_REFERENCE: AFAD
MAGNITUDE_L: 
MAGNITUDE_L_REFERENCE: 
FOCAL_MECHANISM: 
NETWORK: TK
STATION_CODE: 0139
STATION_NAME: 
STATION_LATITUDE_DEGREE: 37.400943
STATION_LONGITUDE_DEGREE: 35.445322
STATION_ELEVATION_M: 238.0
LOCATION: Kahramanmaras_Pazarck_Turkiye
SENSOR_DEPTH_M: 
VS30_M/S: None
SITE_CLASSIFICATION_EC8: unknown
MORPHOLOGIC_CLASSIFICATION: 
EPICENTRAL_DISTANCE_KM: 141.79
EARTHQUAKE_BACKAZIMUTH_DEGREE: 
DATE_TIME_FIRST_SAMPLE_YYYYMMDD_HHMMSS: 2023/02/06 01:17:38.7904290
DATE_TIME_FIRST_SAMPLE_PRECISION: millisecond
SAMPLING_INTERVAL_S: 0.01
NDATA: 12501
DURATION_S: 
STREAM: HNN
UNITS: cm/s^2
INSTRUMENT: sensor = GMS+/GEOSIG | digitizer = 
INSTRUMENT_ANALOG/DIGITAL: 
INSTRUMENTAL_FREQUENCY_HZ: 
INSTRUMENTAL_DAMPING: 
FULL_SCALE_G: 
N_BIT_DIGITAL_CONVERTER: 
PGA_CM/S^2: 17.420
TIME_PGA_S: 
BASELINE_CORRECTION: BASELINE REMOVED
FILTER_TYPE: BUTTERWORTH
FILTER_ORDER: 
LOW_CUT_FREQUENCY_HZ: 
HIGH_CUT_FREQUENCY_HZ: 
LATE/NORMAL_TRIGGERED: 
DATABASE_VERSION: 
HEADER_FORMAT: DYNA 1.2
DATA_TYPE: Acceleration
PROCESSING: Automatic Paolucci et al., 2011
DATA_TIMESTAMP_YYYYMMDD_HHMMSS: 
DATA_LICENSE: U (unknown license)
DATA_CITATION: Turkish Accelerometric Archive v 1.0 - Disaster And Emergency Management Presidency, Earthquake Department
DATA_CREATOR: AFAD
ORIGINAL_DATA_MEDIATOR_CITATION: : AFAD - Disaster And Emergency Management Presidency
ORIGINAL_DATA_MEDIATOR: AFAD PROCESS SERVICE
ORIGINAL_DATA_CREATOR_CITATION: AFAD PROCESS SERVICE
ORIGINAL_DATA_CREATOR: network: TK
USER1: GuestUser
USER2: 
USER3: 
USER4: 
USER5: 
[...]
-5.147534
-5.708636
-6.257789
-6.849285
-7.390385
-7.577162
-7.365714
-7.056594
-6.732927
-6.086629
-4.986775
-3.743529
-2.726801
-2.121026
-1.857885
-1.702288
-1.436549
-0.930525
-0.338258
-0.155645
-0.739347
-1.834273
-2.893610
-3.557321
-3.679156
-3.334188
-2.841931
-2.551255
-2.376695
-1.938730
-1.212163
-0.503000
0.058874
0.612176
1.150931
1.400824
1.285224
1.197938
1.444973
1.803190
1.991258
1.970213
1.714338
1.430148
1.750438
2.997320
4.674898
6.020232
6.635618
6.532746
5.994763
5.353133
4.542393
3.255239
1.472968
-0.526470
-2.237824
-3.069605
-3.019733
-2.821015
-2.920250
-3.178463
-3.598511
-4.186889
-4.562777
-4.461731
-4.032599
-3.328891
-2.221244
-0.954100
0.084708
1.007400
2.104656
3.189443
3.782749
3.688969
3.019803
2.076842
1.389232
1.515476
2.462846
3.375406
3.371246
2.385423
1.077748
0.290388
0.435334
1.062930
1.059549
-0.207343
-2.285490
-4.330906
-5.831849
-6.700777
-6.947300
-6.650389
-6.111634
-5.601454
-5.132057
-4.705522
-4.573823
-4.871521
-5.354174
-5.711618
-5.636549
-4.902968
-3.694791
-2.539347
-1.824730
-1.561329
-1.610948
-1.784477
-1.839032
-1.815137
-2.040619
-2.541196
-2.916045
-2.882019
-2.547701
-2.223775
-2.177280
-2.352627
-2.483814
-2.608766
-2.943610
-3.369634
-3.602649
-3.656165
-3.801639
-4.148433
-4.464314
-4.416261
-3.775158
-2.520742
-1.126312
-0.405719
-0.707833
-1.643781
-2.689610
-3.543731
-4.030280
-4.028985
-3.509453
-2.439732
-0.781378
1.122718
2.651968
3.352558
3.199031
2.699234
2.331399
2.083576
1.786918
1.492597
1.211784
0.781605
0.366232
0.360513
0.814324
1.435685
1.907939
1.999374
1.743759
1.619066
2.120155
3.191434
4.312069
5.120723
5.777672
6.550738
7.392382
8.131937
8.546263
8.345979
7.506665
6.422909
5.492676
4.638296
3.668838
2.671066
1.845000
1.325720
1.044648
0.818646
0.403273
-0.330056
-1.198204
-1.871526
-2.059861
-1.753339
-1.261602
-0.935337
-0.870919
-0.982882
-1.336690
-1.967670
-2.712429
-3.463941
-4.165838
-4.768503
-5.282847
-5.658216
-5.812002
-5.800316
-5.667319
-5.287542
-4.629294
-3.777519
-2.608826
-1.030221
0.589688
1.787734
2.547812
3.075396
3.342434
3.138253
2.376090
1.187648
-0.112754
-1.086368
-1.556032
-1.746186
-1.930106
-2.265470
-2.736693
-3.195446
-3.575231
-3.911374
-4.146468
-4.205439
-4.126733
-3.859436
-3.279638
-2.397729
-1.217088
0.271898
1.820111
3.061798
3.895390
4.461420
4.695207
4.278276
3.192183
1.719814
0.050542
-1.531189
-2.617022
-3.348533
-4.430989
-6.067271
-7.558083
-8.247771
-8.158155
-7.542508
-6.471489
-5.056277
-3.637429
-2.557837
-1.940113
-1.620862
-1.277972
-0.663624
0.248157
1.375806
2.579827
3.470307
3.784623
3.733705
3.561475
3.284039
2.886590
2.274313
1.229003
-0.070360
-1.044493
-1.458047
-1.563517
-1.535466
-1.237516
-0.632260
0.090410
0.812561
1.641997
2.642619
3.547647
4.040942
4.046393
3.741682
3.416449
3.165769
2.719744
1.797044
0.590678
-0.483985
-1.213937
-1.584110
-1.916357
-2.779050
-4.144914
-5.211525
-5.412069
-4.895135
-4.058946
-3.322507
-3.050014
-3.094439
-2.836493
-1.967313
-0.731081
0.591653
1.917765
3.143865
4.135915
4.774941
4.912354
4.668948
4.596209
5.196789
6.277420
6.968139
6.771231
6.268316
6.230646
6.597435
6.974095
7.345559
7.733389
7.909767
7.726627
7.233584
6.445444
5.507418
4.832797
4.600301
4.508340
4.088291
3.202739
2.067809
0.793643
-0.446493
-1.265804
-1.546617
-1.595717
-1.638323
-1.491298
-1.022940
-0.350665
0.377721
0.779059
0.430446
-0.393541
-0.991531
-1.245847
-1.564586
-2.131664
-2.745239
-3.151780
-3.299332
-3.238290
-3.076199
-3.074384
-3.338832
-3.311300
-2.277168
-0.590758
0.666515
1.022134
0.702615
0.050074
-0.725077
-1.494773
-2.080813
-2.286813
-2.068612
-1.552976
-0.873946
-0.242454
0.161481
0.593731
1.361082
2.282994
2.976831
3.339203
3.526752
3.567272
3.374260
2.980708
2.604820
2.483245
2.637803
2.924583
3.205648
3.346699
3.062509
2.189685
0.903570
-0.522819
-1.788413
-2.579410
-2.710336
-2.224834
-1.330717
-0.319444
0.374652
0.400885
-0.033710
-0.252179
0.256703
1.471893
2.932824
4.027742
4.548054
5.022126
6.020151
7.400554
8.614965
9.343870
9.741831
10.174600
10.668156
10.781151
10.084450
8.639877
6.972422
5.674099
5.013765
4.660217
4.067942
3.222913
2.512444
2.068237
1.798075
1.828984
2.375272
3.365244
4.426911
5.183092
5.321545
4.712125
3.824754
3.363662
3.566018
4.241151
5.153452
5.938727
6.055878
5.548808
5.143046
5.059137
4.750529
4.033306
3.162820
2.078545
0.864646
0.063258
-0.288212
-0.880227
-1.927355
-2.798101
-3.000983
-2.587436
-1.872299
-1.237690
-0.937402
-0.934029
-0.859479
-0.260198
0.844591
1.772478
1.875602
1.236310
0.323222
-0.666758
-1.573351
-2.067434
-2.315516
-2.858435
-3.638521
-4.135981
-4.302236
-4.450308
-4.568246
-4.559158
-4.524612
-4.437854
-4.164582
-3.866372
-3.958074
-4.383058
-4.473980
-3.679874
-2.081525
-0.399532
0.646550
0.922420
0.800844
0.730444
0.769665
0.724981
0.592755
0.505210
0.473774
0.548843
0.929919
1.585829
2.152120
2.396038
2.426946
2.231597
1.532558
0.368794
-0.824584
-1.708838
-2.262407
-2.627125
-2.892351
-3.125367
-3.334484
-3.388779
-3.198113
-2.931595
-2.956537
-3.419967
-4.057441
-4.478009
-4.549449
-4.374109
-3.851979
-2.842006
-1.663442
-0.750622
-0.074190
0.613412
1.291403
1.819767
2.185257
2.200319
1.459198
0.058785
-1.111733
-1.385272
-1.149147
-1.183960
-1.804809
-2.953506
-4.407171
-5.613537
-6.102944
-6.134120
-6.230757
-6.492607
-6.878366
-7.387255
-7.691188
-7.536110
-7.263617
-7.100227
-6.624596
-5.565006
-4.344101
-3.329970
-2.447542
-1.757343
-1.418609
-1.152351
-0.583463
0.151677
0.586524
0.500797
0.168290
-0.074596
-0.167337
-0.075383
0.305693
0.844707
1.115382
0.948347
0.608047
0.298660
-0.063201
-0.444284
-0.366097
0.531137
2.053373
3.778748
5.253707
6.061581
6.150418
5.967278
5.856353
5.705944
5.385127
4.912085
4.379038
4.028607
4.031461
4.142638
3.856370
2.943022
1.593524
0.180902
-1.018710
-2.016482
-2.794751
-3.159988
-3.150121
-2.983354
-2.594485
-1.716992
-0.492190
0.496223
0.898859
0.802222
0.361392
-0.288811
-0.869136
-1.241128
-1.746640
-2.669859
-3.717507
-4.421741
-4.762820
-5.035840
-5.298210
-5.519795
-5.781126
-5.947641
-5.762949
-5.237443
-4.562569
-3.776515
-2.870449
-2.016076
-1.360425
-0.811539
-0.076920
1.068913
2.561016
4.161183
5.583668
6.546105
6.894190
6.746378
6.382699
5.943947
5.445449
4.899153
4.334154
3.848644
3.615109
3.710180
3.898249
3.847590
3.542359
3.314539
3.350903
3.476367
3.674566
4.008364
4.205264
4.025241
3.655068
3.454264
3.566480
4.109391
5.049487
5.660458
5.193131
4.023133
3.186157
3.050295
3.285640
3.525922
3.470068
3.071321
2.678288
2.611004
2.794397
2.979607
3.269245
3.925415
4.829923
5.595715
6.051344
6.378388
6.595291
6.483587
5.890533
4.753265
3.290248
1.904902
0.756724
-0.336123
-1.558854
-2.878999
-4.188233
-5.282899
-6.034671
-6.698122
-7.601858
-8.632361
-9.283084
-9.287763
-8.676014
-7.368865
-5.542181
-3.924350
-3.144531
-2.954904
-2.574867
-1.552424
0.172171
2.342788
4.353128
5.586503
5.867048
5.593769
5.399199
5.715852
6.575420
7.625398
8.262865
8.081543
7.327174
6.440842
5.505154
4.598300
3.909132
3.380241
2.974480
3.066693
3.946783
5.187691
6.050636
6.200259
5.862037
5.637854
5.929310
6.494821
6.839269
6.831213
6.617680
6.313488
6.025921
5.735756
5.173095
4.067259
2.565537
1.191361
0.294379
-0.264646
-0.904458
-1.805856
-2.722841
-3.228093
-3.121332
-2.603879
-1.980439
-1.473896
-1.200104
-1.098279
-0.895664
-0.254300
0.917769
2.335319
3.482970
4.058871
4.097573
3.692591
2.923414
1.712632
-0.135101
-2.448338
-4.613507
-6.193679
-7.377186
-8.552639
-9.693024
-10.389985
-10.292057
-9.502626
-8.505121
-7.713352
-7.268373
-7.057186
-6.762093
-6.021758
-4.830207
-3.517863
-2.258771
-1.067739
0.028997
1.040530
1.965819
2.578608
2.574968
2.009709
1.122857
0.209250
-0.440174
-0.746184
-0.638125
-0.015465
0.949310
1.792772
2.324773
2.741178
3.143554
3.564375
4.154563
4.883988
5.393129
5.603278
5.914476
6.472454
6.980556
7.338772
7.881684
8.841782
9.881110
10.588714
10.937578
10.927444
10.512071
9.788094
8.986446
8.155705
7.085717
5.890261
5.033023
4.642848
4.355281
3.978094
3.666369
3.422183
3.131759
2.906277
2.977449
3.181104
3.035110
2.348540
1.262966
-0.000029
-1.242503
-2.183386
-2.567067
-2.537457
-2.474857
-2.514865
-2.422132
-1.879221
-0.784043
0.621817
1.740634
2.039363
1.573856
0.928588
0.699989
1.162112
2.249237
3.640031
4.973416
5.989884
6.517209
6.527596
6.088844
5.290314
4.167593
2.592357
0.573956
-1.430677
-2.770044
-3.222563
-3.107490
-2.863312
-2.874486
-3.130880
-3.216348
-2.958662
-2.521216
-2.022985
-1.466047
-0.911966
-0.417631
0.049168
0.372835
0.411537
0.263725
0.004733
-0.567020
-1.550765
-2.607505
-3.349925
-3.610476
-3.287069
-2.395289
-1.227896
-0.165969
0.739059
1.727732
2.936428
4.163828
5.157437
6.025577
6.988014
7.970192
8.697539
9.024063
9.053154
8.984052
9.084058
9.608007
10.359511
10.666553
10.116361
9.029748
7.941576
6.989783
6.130986
5.383630
4.703035
4.134918
3.916450
4.074645
4.256998
4.266346
4.217766
4.012545
3.497681
2.833451
2.146621
1.217947
-0.205585
-2.018250
-3.924430
-5.520968
-6.472501
-6.929177
-7.338835
-7.913705
-8.518968
-9.021103
-9.440113
-9.877046
-10.381260
-10.806244
-10.970421
-10.796380
-10.175019
-8.972557
-7.273159
-5.462061
-4.038536
-3.274822
-2.991679
-2.816080
-2.525144
-2.078606
-1.676489
-1.623241
-1.882233
-1.967960
-1.682999
-1.607150
-2.144354
-2.896905
-3.430213
-3.737262
-3.941703
-4.206151
-4.769851
-5.610204
-6.420684
-7.120762
-7.921890
-8.813937
-9.463620
-9.708585
-9.682352
-9.548576
-9.491430
-9.721848
-10.265806
-10.877563
-11.131880
-10.659366
-9.523404
-8.254442
-7.267587
-6.464648
-5.469222
-3.985431
-2.190179
-0.694958
0.070055
0.162009
-0.231544
-1.146969
-2.611285
-4.431483
-6.291165
-7.916277
-9.206808
-10.174187
-10.907516
-11.541353
-12.004783
-11.896464
-10.918701
-9.286063
-7.521464
-6.080794
-5.117319
-4.466604
-3.937980
-3.614313
-3.698741
-3.999037
-4.019043
-3.649916
-3.283907
-3.375869
-3.993601
-4.701212
-4.980986
-4.692388
-4.160906
-3.839837
-3.973361
-4.417828
-4.698381
-4.563825
-4.278863
-4.256787
-4.618388
-5.163904
-5.591486
-5.610712
-5.222363
-4.852977
-4.885192
-5.304201
-5.849718
-6.250024
-6.403810
-6.406931
-6.400701
-6.398886
-6.203804
-5.625045
-4.783660
-3.906688
-3.031014
-2.221581
-1.660486
-1.360717
-1.145633
-0.887687
-0.572073
-0.219312
0.162283
0.578168
1.025225
1.524755
2.067926
2.388216
2.069736
0.970914
-0.613414
-2.383476
-4.352521
-6.378974
-8.205926
-9.838052
-11.376661
-12.805128
-13.891741
-14.387642
-14.229187
-13.660819
-13.028028
-12.466414
-11.969481
-11.424492
-10.692989
-9.692887
-8.554068
-7.471619
-6.349165
-5.081242
-3.741363
-2.430318
-1.310462
-0.561295
-0.010331
0.702468
1.393188
1.579957
1.205368
0.497237
-0.405980
-1.249191
-1.473374
-0.826815
0.145492
0.713861
0.703466
0.283158
-0.526543
-1.724856
-2.965251
-3.866910
-4.541531
-5.122635
-5.213298
-4.421529
-3.035152
-1.699169
-0.739070
-0.220577
-0.086281
-0.065504
0.195819
0.844456
1.530240
1.695708
1.192534
0.356857
-0.462455
-1.200200
-1.852741
-2.221875
-2.121868
-1.727804
-1.332181
-1.041504
-0.944095
-1.080997
-1.234783
-1.162052
-0.916315
-0.721493
-0.667205
-0.623048
-0.318344
0.527716
2.003454
3.892482
5.799435
7.398562
8.544135
9.315123
9.792832
9.788152
9.292252
8.690885
8.058347
7.181366
6.324648
5.924861
5.930832
6.057595
6.151627
6.086422
5.680920
4.863167
3.664594
2.047795
0.128885
-1.576235
-2.492440
-2.540241
-2.232160
-2.133192
-2.464920
-3.232278
-4.272912
-5.181584
-5.737231
-6.281969
-7.251946
-8.739900
-10.510742
-12.165208
-13.458076
-14.374541
-14.968894
-15.249967
-15.113073
-14.543925
-13.765404
-12.822451
-11.476857
-9.778757
-8.022210
-6.280990
-4.610166
-3.243531
-2.283952
-1.572971
-1.100977
-1.099162
-1.477128
-1.998486
-2.694408
-3.531904
-4.349397
-5.076491
-5.825146
-6.702386
-7.540141
-8.038640
-7.975780
-7.316752
-6.204170
-4.852342
-3.385436
-1.825793
-0.263033
1.084899
2.003694
2.655968
3.413967
4.259248
4.817745
4.879566
4.409902
3.387711
1.972492
0.419855
-1.197723
-2.972202
-4.807985
-6.638054
-8.314081
-9.449790
-9.922571
-9.910626
-9.592933
-9.002225
-8.354107
-7.598966
-6.418065
-4.665414
-2.605718
-1.065038
-0.254566
-0.009609
-0.280551
-0.732551
-1.261442
-2.002044
-2.888116
-3.774968
-4.716370
-5.746354
-6.906481
-8.352093
-9.823163
-10.856783
-11.485945
-12.083415
-12.729202
-13.074697
-12.895201
-12.268125
-11.207756
-9.749423
-8.105096
-6.349328
-4.314050
-1.942373
0.309811
2.036225
3.342335
4.230997
4.690003
4.890540
5.065880
5.352140
5.525142
5.448247
4.990532
3.985226
2.675732
1.472743
0.790329
0.737073
0.973978
1.256861
1.683396
2.391780
3.140687
3.711913
4.247031
4.732274
5.358311
6.284120
7.186290
7.706601
7.549438
6.976646
6.153697
4.710163
2.777486
0.782724
-0.940320
-1.977317
-2.147729
-1.786655
-1.473639
-1.495463
-1.630286
-1.517810
-1.022177
-0.150919
0.961663
2.128797
3.379835
4.902331
6.911892
9.308247
11.721747
13.784041
15.372778
16.608490
17.294274
17.419738
17.193996
16.711343
16.114653
15.268844
14.024812
12.340473
10.310123
8.293541
6.467109
4.656523
2.561751
0.092912
-2.556724
-5.115962
-7.363477
-9.144710
-10.364324
-11.008812
-11.010634
-10.233152
-8.703123
-6.716941
-4.658025
-2.859655
-1.574067
-0.813471
-0.398365
-0.309528
-0.766204
-1.730467
-2.729538
-3.400782
-3.834858
-4.247113
-4.568969
-4.730809
-4.822770
-4.808747
-4.592364
-4.201676
-3.900349
-3.991532
-4.581468
-5.371167
-5.746795
-5.501838
-4.976071
-4.754753
-5.260524
-6.344280
-7.517655
-8.278519
-8.440618
-8.235665
-7.969926
-7.815628
-7.602622
-7.057893
-6.303011
-5.429155
-4.232408
-2.644710
-0.841925
0.973849
2.763906
4.436548
5.661090
6.203222
6.193867
5.932277
5.586782
5.175046
4.639660
3.874640
2.831408
1.753887
1.159274
1.390204
2.329781
3.463145
4.315180
4.828478
5.125908
5.360994
5.613745
5.724402
5.478398
4.878850
4.260858
3.998749
4.187336
4.690243
5.227180
5.400961
4.828169
3.631414
2.504277
1.885247
1.737175
1.956416
2.295669
2.135128
1.066439
-0.484119
-2.059356
-3.679792
-5.195541
-6.169155
-6.441656
-6.391264
-6.294635
-6.058249
-5.687564
-5.142835
-4.213389
-2.828830
-1.158266
0.479567
1.988815
3.451305
4.684939
5.465278
5.785828
5.777771
5.610477
5.369408
5.146524
5.112750
5.203925
5.065984
4.567746
3.961184
3.523471
3.377737
3.667635
4.491095
5.650955
6.827960
7.782863
8.473842
9.094683
9.805665
10.519503
10.992796
11.099817
10.909923
10.532736
9.922537
8.920869
7.639949
6.432284
5.481790
4.857304
4.574413
4.252297
3.386487
2.073876
0.693725
-0.733184
-2.128661
-3.013694
-3.040714
-2.241152
-0.844384
0.813971
2.397253
3.657383
4.628392
5.461464
6.222320
6.962136
7.516476
7.632329
7.295406
6.749111
6.128781
5.236475
3.905160
2.056648
-0.361535
-3.197166
-6.189696
-9.106114
-11.717046
-13.827664
-15.256391
-15.876461
-15.766843
-15.104698
-14.008221
-12.623402
-11.228972
-10.092491
-9.265653
-8.584546
-7.827845
-6.849044
-5.563976
-4.023815
-2.555611
-1.504853
-0.979347
-0.916746
-1.139631
-1.487464
-1.901538
-2.440820
-3.067384
-3.537048
-3.764868
-3.735258
-3.281707
-2.330961
-1.156034
-0.098003
0.927297
2.121706
3.325467
4.156461
4.438565
4.418819
4.525060
5.090312
6.247574
7.811633
9.365041
10.591662
11.415642
11.895949
12.100123
12.078558
11.902951
11.589408
11.003108
10.059107
8.954051
7.980437
7.166840
6.333241
5.515488
4.889963
4.430689
4.099222
4.007260
4.255075
4.859551
5.672621
6.313724
6.461788
6.126684
5.531552
5.027858
5.004735
5.552322
6.400720
7.342635
8.399107
9.485453
10.363724
10.887153
10.925855
10.264482
8.812375
6.788520
4.439175
1.813437
-0.914909
-3.348939
-5.122378
-6.037284
-6.105347
-5.651537
-5.190452
-4.893281
-4.542858
-4.021768
-3.307150
-2.388354
-1.531384
-1.071339
-0.969773
-1.018094
-1.262539
-1.796106
-2.355390
-2.603992
-2.536976
-2.470739
-2.742460
-3.347723
-3.907526
-3.925454
-3.217071
-2.024740
-0.736554
0.316541
1.090646
1.826564
2.778350
4.015881
5.347448
6.429377
6.968132
6.857467
6.166481
5.182736
4.440056
4.334326
4.740080
5.243766
5.613672
5.870059
6.207754
6.804437
7.542434
8.123531
8.385373
8.454208
8.470829
8.300158
7.703987
6.657638
5.392045
4.173470
3.104521
2.058172
0.941166
-0.064399
-0.628100
-0.579267
-0.097401
0.361605
0.402645
0.033511
-0.395110
-0.391997
0.427567
1.909280
3.328388
4.051318
4.032611
3.572039
2.997948
2.495813
1.858858
0.650674
-1.213944
-3.407948
-5.588703
-7.466050
-8.844902
-9.676163
-10.007371
-10.001400
-9.824502
-9.528370
-9.013254
-8.109006
-6.709380
-4.923479
-3.091599
-1.499486
-0.232082
0.701261
1.221572
1.233518
0.680208
-0.367699
-1.616408
-2.930058
-4.588160
-6.832299
-9.352831
-11.488647
-12.882045
-13.711748
-14.349222
-14.932665
-15.322061
-15.287515
-14.734733
-13.880360
-13.019233
-12.182005
-11.194631
-10.028536
-8.882184
-7.923904
-7.170321
-6.567404
-6.068653
-5.626012
-5.235065
-4.894513
-4.488759
-3.936497
-3.248115
-2.397639
-1.457283
-0.648629
-0.097925
0.210416
0.223660
-0.138460
-0.671508
-1.126365
-1.568753
-2.106477
-2.765512
-3.547417
-4.432970
-5.453861
-6.509302
-7.209381
-7.164185
-6.331892
-4.914862
-3.164290
-1.400469
0.186190
1.737000
3.398732
5.024356
6.435411
7.548513
8.309110
8.917483
9.708472
10.698964
11.529957
11.855703
11.674121
11.261606
10.937412
10.827007
10.799727
10.666722
10.372401
9.993136
9.612573
9.208110
8.595314
7.429991
5.482767
2.920672
0.154400
-2.475235
-4.801720
-6.781415
-8.503680
-10.076579
-11.463483
-12.536069
-13.183154
-13.360580
-13.132248
-12.670644
-12.031099
-11.075157
-9.771645
-8.321624
-6.946157
-5.707068
-4.629554
-3.786611
-3.158756
-2.632729
-2.229833
-1.981239
-1.617827
-0.924770
-0.074554
0.624998
0.948145
0.796956
0.251960
-0.330704
-0.526832
-0.249664
0.314549
1.004229
1.783788
2.633226
3.416162
3.991285
4.402234
4.874488
5.613524
6.643241
7.754524
8.574348
8.848919
8.656167
8.299502
7.960241
7.538374
7.031304
6.781143
7.068183
7.765397
8.564439
9.313086
9.913926
10.165897
10.060427
9.895990
9.817537
9.667907
9.349427
8.902883
8.318401
7.541691
6.767839
6.342335
6.385453
6.872514
7.621941
8.215247
8.124584
7.105251
5.603529
4.298451
3.494465
3.046881
2.629171
2.182626
1.901294
1.923630
2.215865
2.620320
2.921647
2.955933
2.779287
2.705249
3.103469
4.018109
5.202906
6.413941
7.415082
8.009947
8.146321
7.989418
7.817708
7.747307
7.698986
7.582087
7.436613
7.414529
7.592986
7.906782
8.238242
8.410204
8.305514
8.109385
8.165232
8.443439
8.541108
8.262893
7.744912
7.367985
7.592940
8.440559
9.397800
9.954999
10.029289
9.713667
8.915656
7.516282
5.543861
3.178670
0.721522
-1.469365
